[{"OBJECT_NAME":"SHIYAN-6 01 (SY-6 01)","OBJECT_ID":"2018-094B","EPOCH":"2026-03-09T23:04:36.967872","MEAN_MOTION":15.28649156,"ECCENTRICITY":0.00144834,"INCLINATION":97.3669,"RA_OF_ASC_NODE":84.0964,"ARG_OF_PERICENTER":135.6758,"MEAN_ANOMALY":224.5644,"EPHEMERIS_TYPE":0,"CLASSIFICATION_TYPE":"U","NORAD_CAT_ID":43711,"ELEMENT_SET_NO":999,"REV_AT_EPOCH":40632,"BSTAR":0.00024768444,"MEAN_MOTION_DOT":6.847e-5,"MEAN_MOTION_DDOT":0},{"OBJECT_NAME":"STARLINK-32283","OBJECT_ID":"2024-249S","EPOCH":"2026-03-09T00:41:02.411232","MEAN_MOTION":15.27584278,"ECCENTRICITY":0.00019915,"INCLINATION":43.0015,"RA_OF_ASC_NODE":314.2453,"ARG_OF_PERICENTER":267.6192,"MEAN_ANOMALY":92.4432,"EPHEMERIS_TYPE":0,"CLASSIFICATION_TYPE":"U","NORAD_CAT_ID":62425,"ELEMENT_SET_NO":999,"REV_AT_EPOCH":6775,"BSTAR":0.0015652681,"MEAN_MOTION_DOT":0.00043069,"MEAN_MOTION_DDOT":0}]
